NORAD_CAT_ID,OBJECT_NAME,OBJECT_TYPE,EPOCH,MEAN_MOTION,ECCENTRICITY,INCLINATION,RA_OF_ASC_NODE,ARG_OF_PERICENTER,MEAN_ANOMALY,BSTAR,MEAN_MOTION_DOT,MEAN_MOTION_DDOT,TLE_LINE0,TLE_LINE1,TLE_LINE2,SEMIMAJOR_AXIS,PERIOD,APOGEE,PERIGEE,DECAYED
53132.0,STARLINK-4063,PAYLOAD,2023-09-09 11:24:24,15.0883999,0.0001411,53.2161,309.213,86.0122,274.1032,0.00012998,1.781e-05,0.0,0 STARLINK-4063,1 53132U 22083A   23252.47528083  .00001781  00000-0  12998-3 0  9999,2 53132  53.2161 309.2130 0001411  86.0122 274.1032 15.08839990 63503,6917.88,95.438,540.722,538.769,0.0
53132.0,STARLINK-4063,PAYLOAD,2023-09-10 09:39:47,15.08848631,0.0001451,53.2159,305.0507,89.5446,270.5712,0.0002768,4.121e-05,0.0,0 STARLINK-4063,1 53132U 22083A   23253.40263864  .00004121  00000-0  27680-3 0  9991,2 53132  53.2159 305.0507 0001451  89.5446 270.5712 15.08848631 64275,6917.854,95.437,540.723,538.715,0.0
53132.0,STARLINK-4063,PAYLOAD,2023-09-10 11:15:11,15.08849009,0.0001461,53.2159,304.7535,90.778,269.3379,0.00037261,5.649e-05,0.0,0 STARLINK-4063,1 53132U 22083A   23253.46887883  .00005649  00000-0  37261-3 0  9992,2 53132  53.2159 304.7535 0001461  90.7780 269.3379 15.08849009 63654,6917.853,95.437,540.729,538.707,0.0
53132.0,STARLINK-4063,PAYLOAD,2023-09-11 03:09:02,15.08839797,0.0001601,53.2163,301.7814,79.8903,280.227,0.00016541,2.345e-05,0.0,0 STARLINK-4063,1 53132U 22083A   23254.13128377  .00002345  00000-0  16541-3 0  9991,2 53132  53.2163 301.7814 0001601  79.8903 280.2270 15.08839797 64383,6917.881,95.438,540.854,538.638,0.0
53132.0,STARLINK-4063,PAYLOAD,2023-09-11 09:30:35,15.08838573,0.0001579,53.2156,300.5902,83.4613,276.6559,0.00011987,1.62e-05,0.0,0 STARLINK-4063,1 53132U 22083A   23254.39624459  .00001620  00000-0  11987-3 0  9995,2 53132  53.2156 300.5902 0001579  83.4613 276.6559 15.08838573 63797,6917.885,95.438,540.842,538.657,0.0
53132.0,STARLINK-4063,PAYLOAD,2023-09-12 09:21:22,15.08850888,0.0001573,53.2159,296.1299,81.497,278.6201,0.00020511,2.979e-05,0.0,0 STARLINK-4063,1 53132U 22083A   23255.38983867  .00002979  00000-0  20511-3 0  9997,2 53132  53.2159 296.1299 0001573  81.4970 278.6201 15.08850888 64573,6917.847,95.437,540.8,538.624,0.0
53132.0,STARLINK-4063,PAYLOAD,2023-09-12 12:32:08,15.08853714,0.0001572,53.2159,295.5347,82.7834,277.3337,0.00024165,3.561e-05,0.0,0 STARLINK-4063,1 53132U 22083A   23255.52231656  .00003561  00000-0  24165-3 0  9992,2 53132  53.2159 295.5347 0001572  82.7834 277.3337 15.08853714 63961,6917.838,95.437,540.791,538.616,0.0
53132.0,STARLINK-4063,PAYLOAD,2023-09-13 09:12:08,15.08847928,0.000163,53.2162,291.6668,92.5236,267.5943,0.00017564,2.509e-05,0.0,0 STARLINK-4063,1 53132U 22083A   23256.38343741  .00002509  00000-0  17564-3 0  9992,2 53132  53.2162 291.6668 0001630  92.5236 267.5943 15.08847928 64727,6917.856,95.437,540.849,538.594,0.0
53132.0,STARLINK-4063,PAYLOAD,2023-09-13 12:22:55,15.08848755,0.000161,53.2159,291.0716,92.3325,267.7851,0.00016793,2.386e-05,0.0,0 STARLINK-4063,1 53132U 22083A   23256.51591593  .00002386  00000-0  16793-3 0  9993,2 53132  53.2159 291.0716 0001610  92.3325 267.7851 15.08848755 64118,6917.854,95.437,540.832,538.605,0.0
53132.0,STARLINK-4063,PAYLOAD,2023-09-13 13:58:18,15.08853566,0.0001562,53.2157,290.7763,81.6663,278.4506,0.00024449,3.607e-05,0.0,0 STARLINK-4063,1 53132U 22083A   23256.58215357  .00003607  00000-0  24449-3 0  9995,2 53132  53.2157 290.7763 0001562  81.6663 278.4506 15.08853566 64129,6917.839,95.437,540.784,538.623,0.0
53132.0,STARLINK-4063,PAYLOAD,2023-09-14 02:41:24,15.08823421,0.0001502,53.2159,288.3962,105.5044,254.6114,-0.00027473,-4.656e-05,0.0,0 STARLINK-4063,1 53132U 22083A   23257.11208994 -.00004656  00000-0 -27473-3 0  9991,2 53132  53.2159 288.3962 0001502 105.5044 254.6114 15.08823421 64834,6917.931,95.439,540.835,538.757,0.0
53132.0,STARLINK-4063,PAYLOAD,2023-09-14 07:27:34,15.08828886,0.0001614,53.2167,287.5039,101.0663,259.051,-0.00011113,-2.056e-05,0.0,0 STARLINK-4063,1 53132U 22083A   23257.31081519 -.00002056  00000-0 -11113-3 0  9991,2 53132  53.2167 287.5039 0001614 101.0663 259.0510 15.08828886 64234,6917.914,95.438,540.896,538.663,0.0
53132.0,STARLINK-4063,PAYLOAD,2023-09-14 18:35:16,15.08835022,0.0001631,53.2171,285.4233,93.7475,266.3703,-6.4676e-05,-1.317e-05,0.0,0 STARLINK-4063,1 53132U 22083A   23257.77449231 -.00001317  00000-0 -64676-4 0  9992,2 53132  53.2171 285.4233 0001631  93.7475 266.3703 15.08835022 64302,6917.896,95.438,540.889,538.632,0.0
53132.0,STARLINK-4063,PAYLOAD,2023-09-15 02:32:11,15.08836723,0.0001503,53.2151,283.9362,97.0983,263.018,1.097e-05,-1.13e-06,0.0,0 STARLINK-4063,1 53132U 22083A   23258.10569002 -.00000113  00000-0  10970-4 0  9999,2 53132  53.2151 283.9362 0001503  97.0983 263.0180 15.08836723 64981,6917.89,95.438,540.795,538.716,0.0
53132.0,STARLINK-4063,PAYLOAD,2023-09-15 12:04:30,15.08840943,0.0001505,53.2152,282.1525,96.4026,263.7138,0.00025463,3.767e-05,0.0,0 STARLINK-4063,1 53132U 22083A   23258.50313084  .00003767  00000-0  25463-3 0  9999,2 53132  53.2152 282.1525 0001505  96.4026 263.7138 15.08840943 64414,6917.878,95.437,540.784,538.701,0.0
53132.0,STARLINK-4063,PAYLOAD,2023-09-16 08:44:31,15.08850213,0.0001557,53.2151,278.2867,100.0339,260.0829,0.00034698,5.24e-05,0.0,0 STARLINK-4063,1 53132U 22083A   23259.36424953  .00005240  00000-0  34698-3 0  9990,2 53132  53.2151 278.2867 0001557 100.0339 260.0829 15.08850213 65176,6917.849,95.437,540.791,538.637,0.0
53132.0,STARLINK-4063,PAYLOAD,2023-09-17 00:38:22,15.08846245,0.0001663,53.2154,275.3138,92.1091,268.0091,0.00013086,1.796e-05,0.0,0 STARLINK-4063,1 53132U 22083A   23260.02664936  .00001796  00000-0  13086-3 0  9992,2 53132  53.2154 275.3138 0001663  92.1091 268.0091 15.08846245 65272,6917.861,95.437,540.877,538.576,0.0
53132.0,STARLINK-4063,PAYLOAD,2023-09-17 08:35:18,15.08845155,0.0001609,53.2159,273.8263,90.5102,269.6074,0.00010159,1.329e-05,0.0,0 STARLINK-4063,1 53132U 22083A   23260.35785080  .00001329  00000-0  10159-3 0  9992,2 53132  53.2159 273.8263 0001609  90.5102 269.6074 15.08845155 64696,6917.865,95.437,540.843,538.617,0.0
53132.0,STARLINK-4063,PAYLOAD,2023-09-18 02:04:32,15.08845804,0.0001699,53.2162,270.5548,87.1373,272.9814,0.00011895,1.606e-05,0.0,0 STARLINK-4063,1 53132U 22083A   23261.08648972  .00001606  00000-0  11895-3 0  9997,2 53132  53.2162 270.5548 0001699  87.1373 272.9814 15.08845804 65434,6917.863,95.437,540.903,538.552,0.0
53132.0,STARLINK-4063,PAYLOAD,2023-09-18 08:26:05,15.08847921,0.0001521,53.2152,269.3659,88.1938,271.9229,0.00011502,1.543e-05,0.0,0 STARLINK-4063,1 53132U 22083A   23261.35144714  .00001543  00000-0  11502-3 0  9997,2 53132  53.2152 269.3659 0001521  88.1938 271.9229 15.08847921 64849,6917.856,95.437,540.773,538.669,0.0
53132.0,STARLINK-4063,PAYLOAD,2023-09-18 17:58:23,15.08849123,0.0001453,53.216,267.5819,97.9449,262.1708,9.0064e-05,1.146e-05,0.0,0 STARLINK-4063,1 53132U 22083A   23261.74888589  .00001146  00000-0  90064-4 0  9995,2 53132  53.2160 267.5819 0001453  97.9449 262.1708 15.08849123 64902,6917.853,95.437,540.723,538.712,0.0
53132.0,STARLINK-4063,PAYLOAD,2023-09-19 06:41:28,15.08849237,0.0001587,53.215,265.2038,84.4836,275.6338,0.00011289,1.51e-05,0.0,0 STARLINK-4063,1 53132U 22083A   23262.27880530  .00001510  00000-0  11289-3 0  9998,2 53132  53.2150 265.2038 0001587  84.4836 275.6338 15.08849237 65611,6917.852,95.437,540.815,538.619,0.0
53132.0,STARLINK-4063,PAYLOAD,2023-09-19 17:49:10,15.08841571,0.0001486,53.2144,263.1217,94.1508,265.9654,5.6819e-05,6.16e-06,0.0,0 STARLINK-4063,1 53132U 22083A   23262.74248801  .00000616  00000-0  56819-4 0  9994,2 53132  53.2144 263.1217 0001486  94.1508 265.9654 15.08841571 65685,6917.876,95.437,540.769,538.713,0.0
53132.0,STARLINK-4063,PAYLOAD,2023-09-20 06:32:16,15.08838422,0.0001554,53.2162,260.7414,94.7027,265.4143,-3.1094e-05,-7.83e-06,0.0,0 STARLINK-4063,1 53132U 22083A   23263.27241285 -.00000783  00000-0 -31094-4 0  9997,2 53132  53.2162 260.7414 0001554  94.7027 265.4143 15.08838422 65763,6917.885,95.438,540.825,538.675,0.0
53132.0,STARLINK-4063,PAYLOAD,2023-09-21 09:33:49,15.08839619,0.0001633,53.2165,255.6867,96.0603,264.0576,-2.703e-05,-7.18e-06,0.0,0 STARLINK-4063,1 53132U 22083A   23264.39849527 -.00000718  00000-0 -27030-4 0  9997,2 53132  53.2165 255.6867 0001633  96.0603 264.0576 15.08839619 65937,6917.882,95.438,540.876,538.617,0.0
53132.0,STARLINK-4063,PAYLOAD,2023-09-22 10:59:59,15.08844088,0.0001468,53.216,250.9283,91.6499,268.4661,0.00016854,2.396e-05,0.0,0 STARLINK-4063,1 53132U 22083A   23265.45833048  .00002396  00000-0  16854-3 0  9999,2 53132  53.2160 250.9283 0001468  91.6499 268.4661 15.08844088 65469,6917.868,95.437,540.748,538.717,0.0
53132.0,STARLINK-4063,PAYLOAD,2023-09-22 15:46:10,15.08831115,0.0001891,53.2157,250.0348,87.3355,272.7853,8.6338e-05,1.086e-05,0.0,0 STARLINK-4063,1 53132U 22083A   23265.65706321  .00001086  00000-0  86338-4 0  9994,2 53132  53.2157 250.0348 0001891  87.3355 272.7853 15.08831115 66123,6917.908,95.438,541.081,538.464,0.0
53132.0,STARLINK-4063,PAYLOAD,2023-09-23 04:29:14,15.08841778,0.0001318,53.2156,247.6553,87.0556,273.0587,0.000105,1.384e-05,0.0,0 STARLINK-4063,1 53132U 22083A   23266.18697504  .00001384  00000-0  10500-3 0  9993,2 53132  53.2156 247.6553 0001318  87.0556 273.0587 15.08841778 66209,6917.875,95.437,540.652,538.828,0.0
53132.0,STARLINK-4063,PAYLOAD,2023-09-24 02:44:39,15.08838799,0.0001693,53.2166,243.4954,92.0714,268.0472,-2.0539e-05,-6.15e-06,0.0,0 STARLINK-4063,1 53132U 22083A   23267.11434113 -.00000615  00000-0 -20539-4 0  9994,2 53132  53.2166 243.4954 0001693  92.0714 268.0472 15.08838799 66348,6917.884,95.438,540.92,538.578,0.0
53132.0,STARLINK-4063,PAYLOAD,2023-09-24 05:55:25,15.08841047,0.0001409,53.2164,242.9004,87.87,272.2453,8.0846e-06,-1.59e-06,0.0,0 STARLINK-4063,1 53132U 22083A   23267.24681828 -.00000159  00000-0  80846-5 0  9995,2 53132  53.2164 242.9004 0001409  87.8700 272.2453 15.08841047 65736,6917.877,95.437,540.717,538.767,0.0
